{
  "norad_id": 50167,
  "name": "STARLINK-3271",
  "history": [
    {
      "epoch": "2026-03-28T15:05:47.724576Z",
      "apogee_km": 540.57939231826,
      "perigee_km": 538.8997318889806,
      "latitude_deg": 1.0854237615568423e-06,
      "longitude_deg": 121.61321765915687,
      "height_km": 540.5866629743794,
      "semi_major_axis_km": 6917.87656210362,
      "eccentricity": 0.0001214,
      "inclination_deg": 53.2164,
      "raan_deg": 174.1088,
      "arg_perigee_deg": 86.6754,
      "mean_anomaly_deg": 273.4377,
      "mean_motion_rev_day": 15.08841252
    },
    {
      "epoch": "2026-03-29T05:24:16.397856Z",
      "apogee_km": 540.5116456690748,
      "perigee_km": 539.0049280755939,
      "latitude_deg": 9.808769275629856e-06,
      "longitude_deg": -96.26945511953632,
      "height_km": 540.637651281906,
      "semi_major_axis_km": 6917.895286872334,
      "eccentricity": 0.0001089,
      "inclination_deg": 53.2169,
      "raan_deg": 171.4332,
      "arg_perigee_deg": 88.7331,
      "mean_anomaly_deg": 271.3786,
      "mean_motion_rev_day": 15.08835126
    },
    {
      "epoch": "2026-03-30T05:15:03.565728Z",
      "apogee_km": 540.5963576253298,
      "perigee_km": 538.9180764882722,
      "latitude_deg": 3.3390754785488055e-06,
      "longitude_deg": -99.4056303908309,
      "height_km": 540.6155954154864,
      "semi_major_axis_km": 6917.894217056801,
      "eccentricity": 0.0001213,
      "inclination_deg": 53.2156,
      "raan_deg": 166.9729,
      "arg_perigee_deg": 87.4497,
      "mean_anomaly_deg": 272.6634,
      "mean_motion_rev_day": 15.08835476
    },
    {
      "epoch": "2026-03-30T05:15:03.566592Z",
      "apogee_km": 540.5960809095614,
      "perigee_km": 538.9183532040406,
      "latitude_deg": 7.025127660587248e-06,
      "longitude_deg": -99.4056312598466,
      "height_km": 540.6156077286731,
      "semi_major_axis_km": 6917.894217056801,
      "eccentricity": 0.00012126,
      "inclination_deg": 53.2156,
      "raan_deg": 166.9729,
      "arg_perigee_deg": 87.4497,
      "mean_anomaly_deg": 272.6634,
      "mean_motion_rev_day": 15.08835476
    },
    {
      "epoch": "2026-03-30T14:47:21.982560Z",
      "apogee_km": 540.6568418512879,
      "perigee_km": 538.8158573954852,
      "latitude_deg": -4.639582934468201e-05,
      "longitude_deg": 115.3417661012766,
      "height_km": 540.6434670405245,
      "semi_major_axis_km": 6917.873349623386,
      "eccentricity": 0.00013306,
      "inclination_deg": 53.2156,
      "raan_deg": 165.1888,
      "arg_perigee_deg": 90.7192,
      "mean_anomaly_deg": 269.3952,
      "mean_motion_rev_day": 15.08842303
    },
    {
      "epoch": "2026-03-30T16:22:45.045120Z",
      "apogee_km": 540.6572187672809,
      "perigee_km": 538.8111156675968,
      "latitude_deg": -1.9977223034271142e-07,
      "longitude_deg": 91.13301824235236,
      "height_km": 540.639652201789,
      "semi_major_axis_km": 6917.871167217439,
      "eccentricity": 0.00013343,
      "inclination_deg": 53.2156,
      "raan_deg": 164.8914,
      "arg_perigee_deg": 90.6166,
      "mean_anomaly_deg": 269.4979,
      "mean_motion_rev_day": 15.08843017
    },
    {
      "epoch": "2026-03-31T20:59:41.514720Z",
      "apogee_km": 540.6579140680478,
      "perigee_km": 538.8246763198213,
      "latitude_deg": 5.277571501694843e-06,
      "longitude_deg": 15.369929445291051,
      "height_km": 540.6476338968671,
      "semi_major_axis_km": 6917.878295193934,
      "eccentricity": 0.0001325,
      "inclination_deg": 53.2156,
      "raan_deg": 159.5388,
      "arg_perigee_deg": 90.6736,
      "mean_anomaly_deg": 269.4408,
      "mean_motion_rev_day": 15.08840685
    },
    {
      "epoch": "2026-04-01T20:50:29.050656Z",
      "apogee_km": 540.7131864182129,
      "perigee_km": 538.7886300021501,
      "latitude_deg": -3.8729114965196266e-05,
      "longitude_deg": 12.232689063270595,
      "height_km": 540.6639155807788,
      "semi_major_axis_km": 6917.887908210181,
      "eccentricity": 0.0001391,
      "inclination_deg": 53.2155,
      "raan_deg": 155.079,
      "arg_perigee_deg": 91.0445,
      "mean_anomaly_deg": 269.0706,
      "mean_motion_rev_day": 15.0883754
    },
    {
      "epoch": "2026-04-02T20:41:15.830592Z",
      "apogee_km": 540.8020475673557,
      "perigee_km": 538.6713424692907,
      "latitude_deg": -4.484247868777057e-06,
      "longitude_deg": 9.099565009241246,
      "height_km": 540.7181584181551,
      "semi_major_axis_km": 6917.873695018323,
      "eccentricity": 0.000154,
      "inclination_deg": 53.2178,
      "raan_deg": 150.6201,
      "arg_perigee_deg": 94.628,
      "mean_anomaly_deg": 265.4888,
      "mean_motion_rev_day": 15.0884219
    },
    {
      "epoch": "2026-04-02T20:41:15.832320Z",
      "apogee_km": 540.8023242823037,
      "perigee_km": 538.6710657543426,
      "latitude_deg": -8.179403947303027e-06,
      "longitude_deg": 9.099555042154604,
      "height_km": 540.7181807469497,
      "semi_major_axis_km": 6917.873695018323,
      "eccentricity": 0.00015404,
      "inclination_deg": 53.2178,
      "raan_deg": 150.6201,
      "arg_perigee_deg": 94.628,
      "mean_anomaly_deg": 265.4888,
      "mean_motion_rev_day": 15.0884219
    },
    {
      "epoch": "2026-04-03T12:35:07.770336Z",
      "apogee_km": 540.8323702906509,
      "perigee_km": 538.6851937978199,
      "latitude_deg": 2.8519316021140723e-06,
      "longitude_deg": 127.00595707453841,
      "height_km": 540.648024371964,
      "semi_major_axis_km": 6917.895782044235,
      "eccentricity": 0.00015519,
      "inclination_deg": 53.2178,
      "raan_deg": 147.6458,
      "arg_perigee_deg": 89.6672,
      "mean_anomaly_deg": 270.4498,
      "mean_motion_rev_day": 15.08834964
    },
    {
      "epoch": "2026-04-04T02:53:35.844864Z",
      "apogee_km": 540.8387805470593,
      "perigee_km": 538.6579863587795,
      "latitude_deg": -3.0805252483723586e-05,
      "longitude_deg": -90.87544570420309,
      "height_km": 540.5752895009851,
      "semi_major_axis_km": 6917.885383452919,
      "eccentricity": 0.00015762,
      "inclination_deg": 53.218,
      "raan_deg": 144.969,
      "arg_perigee_deg": 86.3945,
      "mean_anomaly_deg": 273.7227,
      "mean_motion_rev_day": 15.08838366
    },
    {
      "epoch": "2026-04-05T12:16:42.168288Z",
      "apogee_km": 540.6934936078287,
      "perigee_km": 538.829120014143,
      "latitude_deg": -4.18071783451251e-05,
      "longitude_deg": 120.73011984063022,
      "height_km": 540.6524073073574,
      "semi_major_axis_km": 6917.898306810986,
      "eccentricity": 0.00013475,
      "inclination_deg": 53.2159,
      "raan_deg": 138.722,
      "arg_perigee_deg": 89.7254,
      "mean_anomaly_deg": 270.3892,
      "mean_motion_rev_day": 15.08834138
    },
    {
      "epoch": "2026-04-05T20:13:37.724736Z",
      "apogee_km": 540.6884814327123,
      "perigee_km": 538.8220341015667,
      "latitude_deg": 3.092909271575495e-05,
      "longitude_deg": -0.31385607588064196,
      "height_km": 540.6214182691846,
      "semi_major_axis_km": 6917.892257767139,
      "eccentricity": 0.0001349,
      "inclination_deg": 53.2164,
      "raan_deg": 137.2359,
      "arg_perigee_deg": 88.1916,
      "mean_anomaly_deg": 271.9231,
      "mean_motion_rev_day": 15.08836117
    },
    {
      "epoch": "2026-04-06T02:35:10.212576Z",
      "apogee_km": 540.6720348370109,
      "perigee_km": 538.8306313205112,
      "latitude_deg": 3.443184055816097e-05,
      "longitude_deg": -97.15007587269696,
      "height_km": 540.623742486501,
      "semi_major_axis_km": 6917.88833307876,
      "eccentricity": 0.00013309,
      "inclination_deg": 53.2164,
      "raan_deg": 136.0462,
      "arg_perigee_deg": 88.5545,
      "mean_anomaly_deg": 271.56,
      "mean_motion_rev_day": 15.08837401
    },
    {
      "epoch": "2026-04-07T08:47:30.981120Z",
      "apogee_km": 540.6006804545132,
      "perigee_km": 538.9564302853123,
      "latitude_deg": 6.986671584948429e-05,
      "longitude_deg": 162.8720047306862,
      "height_km": 540.7166643370366,
      "semi_major_axis_km": 6917.915555369912,
      "eccentricity": 0.00011884,
      "inclination_deg": 53.217,
      "raan_deg": 130.3953,
      "arg_perigee_deg": 92.9439,
      "mean_anomaly_deg": 267.169,
      "mean_motion_rev_day": 15.08828495
    },
    {
      "epoch": "2026-04-08T11:49:04.542816Z",
      "apogee_km": 540.5484794367503,
      "perigee_km": 539.0032944143259,
      "latitude_deg": 7.543512893934339e-05,
      "longitude_deg": 111.31814715189813,
      "height_km": 540.6618714307091,
      "semi_major_axis_km": 6917.912886925537,
      "eccentricity": 0.00011168,
      "inclination_deg": 53.2154,
      "raan_deg": 125.3412,
      "arg_perigee_deg": 89.2712,
      "mean_anomaly_deg": 270.8409,
      "mean_motion_rev_day": 15.08829368
    },
    {
      "epoch": "2026-04-09T08:29:05.315136Z",
      "apogee_km": 540.5879909889436,
      "perigee_km": 538.9138621107186,
      "latitude_deg": 2.26513226521816e-05,
      "longitude_deg": 156.60022865543147,
      "height_km": 540.6705991856811,
      "semi_major_axis_km": 6917.887926549831,
      "eccentricity": 0.000121,
      "inclination_deg": 53.2161,
      "raan_deg": 121.4753,
      "arg_perigee_deg": 91.6363,
      "mean_anomaly_deg": 268.4768,
      "mean_motion_rev_day": 15.08837534
    },
    {
      "epoch": "2026-04-10T11:30:38.229696Z",
      "apogee_km": 540.5591889233756,
      "perigee_km": 538.9072015207576,
      "latitude_deg": 2.303520799787299e-05,
      "longitude_deg": 105.04767135499714,
      "height_km": 540.6775577614853,
      "semi_major_axis_km": 6917.870195222066,
      "eccentricity": 0.0001194,
      "inclination_deg": 53.2161,
      "raan_deg": 116.4198,
      "arg_perigee_deg": 93.3708,
      "mean_anomaly_deg": 266.7421,
      "mean_motion_rev_day": 15.08843335
    }
  ]
}